SHIJIAN-17 (SJ-17)      
1 41838U 16065A   26178.51347633  .00000126  00000+0  00000+0 0  9995
2 41838   5.7784  72.4841 0002252  29.4143 218.9305  0.99859117 35305
GOES 16                 
1 41866U 16071A   26178.50037272 -.00000080  00000+0  00000+0 0  9997
2 41866   0.3667  85.5265 0000588  10.2393 255.2834  1.00272086 35204
TIANLIAN 1-04           
1 41869U 16072A   26178.48051196  .00000042  00000+0  00000+0 0  9996
2 41869   0.8948  82.8611 0042915  90.3286  92.1720  1.00273388 35409
WGS F8 (USA 272)        
1 41879U 16075A   26178.19437110  .00000000  00000+0  00000+0 0  9996
2 41879   0.0466  54.1204 0000180 172.7870 268.2362  1.00267964 34926
FENGYUN 4A              
1 41882U 16077A   26177.54757616 -.00000348  00000+0  00000+0 0  9992
2 41882   2.3469  80.1884 0008229 152.1316   3.0696  1.00264621 35024
ECHOSTAR 19             
1 41893U 16079A   26178.50184608 -.00000127  00000+0  00000+0 0  9993
2 41893   0.0172  25.9626 0001622  63.0216 270.1812  1.00270730 34802
JCSAT-110A (JCSAT-15)   
1 41903U 16082A   26178.48169678 -.00000339  00000+0  00000+0 0  9991
2 41903   0.0039  84.8351 0000850  17.0603  97.1806  1.00272253 34864
STAR ONE D1             
1 41904U 16082B   26178.50444609 -.00000199  00000+0  00000+0 0  9999
2 41904   0.0238  56.8256 0002296  54.8404 261.5509  1.00271620 34878
TJS-2                   
1 41911U 17001A   26178.46302311  .00000004  00000+0  00000+0 0  9991
2 41911   0.8595  85.2120 0000799  46.0987  17.4864  1.00272419 34825
SBIRS GEO-4 (USA 273)   
1 41937U 17004A   26178.16878918  .00000133  00000+0  00000+0 0  9993
2 41937   2.2617  43.5508 0002373  44.7318 268.6702  1.00273895 34699
HISPASAT 36W-1          
1 41942U 17006A   26178.51389279 -.00000233  00000+0  00000+0 0  9999
2 41942   0.0088 293.3383 0001099 168.3044 322.9881  1.00273080 34342
TELKOM 3S               
1 41944U 17007A   26178.46919846 -.00000351  00000+0  00000+0 0  9996
2 41944   0.0147  63.2858 0002523  32.7889 106.4191  1.00272925 34240
INTELSAT 32E (IS-32E)   
1 41945U 17007B   26178.51250612 -.00000257  00000+0  00000+0 0  9997
2 41945   0.0041  32.2744 0001011 326.4793  58.1881  1.00269458 34327
ECHOSTAR 23             
1 42070U 17014A   26178.35678434  .00000000  00000+0  00000+0 0  9998
2 42070   0.0286  21.8792 0002056  75.8712 196.2646  1.00270461 34027
WGS F9 (USA 275)        
1 42075U 17016A   26178.37611111  .00000000  00000+0  00000+0 0  9996
2 42075   0.0262 350.9827 0000475  44.6178   3.2905  1.00267659 33999
SES-10                  
1 42432U 17017A   26178.29396273 -.00000261  00000+0  00000+0 0  9994
2 42432   0.0188  38.1681 0003064  63.7527 212.4183  1.00272066 33858
CHINASAT 16 (SJ-13)     
1 42662U 17018A   26176.97461878 -.00000342  00000+0  00000+0 0  9997
2 42662   0.0997  89.7024 0004043 125.6560 160.1297  1.00275032 33836
KOREASAT 7              
1 42691U 17023A   26178.42267006 -.00000350  00000+0  00000+0 0  9993
2 42691   0.0209  21.8640 0000543  57.0803 104.6576  1.00271986 33471
SGDC                    
1 42692U 17023B   26178.44256141 -.00000238  00000+0  00000+0 0  9999
2 42692   0.0244  59.5124 0002804  41.2666 259.2488  1.00273234 33501
GSAT-9                  
1 42695U 17024A   26178.13864480 -.00000275  00000+0  00000+0 0  9991
2 42695   0.0404  88.6121 0002088  16.7368 317.0931  1.00273937 33395
INMARSAT 5-F4           
1 42698U 17025A   26178.38963117  .00000000  00000+0  00000+0 0  9994
2 42698   0.0280  24.4788 0000676   8.0685  79.7214  1.00267034 33380
SES-15                  
1 42709U 17026A   26178.42427005  .00000071  00000+0  00000+0 0  9992
2 42709   0.0203 333.7086 0001081 157.7213 167.6801  1.00273031  7536
QZS-2 (MICHIBIKI-2)     
1 42738U 17028A   26178.49488949 -.00000130  00000+0  00000+0 0  9994
2 42738  39.4116 243.0027 0758985 269.3731  83.4413  1.00281278  7730
VIASAT-2                
1 42740U 17029A   26178.50721942 -.00000254  00000+0  00000+0 0  9990
2 42740   0.0169 301.4613 0000484 128.8496 318.0244  1.00272211 33304
EUTELSAT 172B           
1 42741U 17029B   26178.51711534  .00000006  00000+0  00000+0 0  9992
2 42741   0.0373 130.9469 0000280 322.8448 179.9984  1.00272630 33842
GSAT-19                 
1 42747U 17031A   26178.45929645  .00000137  00000+0  00000+0 0  9993
2 42747   0.0163 325.6365 0007166 111.2779  51.8509  1.00272562 33250
ECHOSTAR 21             
1 42749U 17032A   26178.52316617  .00000078  00000+0  00000+0 0  9997
2 42749   1.7699 356.3835 0002614  89.9789  27.8742  1.00273554 33201
BULGARIASAT-1           
1 42801U 17038A   26178.30756947  .00000018  00000+0  00000+0 0  9996
2 42801   0.0332  74.5042 0003145   3.7304 309.8067  1.00247161 32940
HELLAS-SAT 3            
1 42814U 17040A   26178.52881551  .00000164  00000+0  00000+0 0  9999
2 42814   0.0418  37.3945 0004330  23.1099  84.5125  1.00269832 32910
GSAT-17                 
1 42815U 17040B   26178.11191736 -.00000246  00000+0  00000+0 0  9996
2 42815   0.0309  84.3360 0001388 209.3628 115.3211  1.00272601 32882
INTELSAT 35E (IS-35E)   
1 42818U 17041A   26178.44299014  .00000000  00000+0  00000+0 0  9991
2 42818   0.0280  28.1595 0002388  69.9449 302.4367  1.00269000 32915
COSMOS 2520             
1 42907U 17046A   26178.17355587  .00000149  00000+0  00000+0 0  9997
2 42907   0.0413  98.3723 0000353  27.4401 256.9528  1.00270498 32499
