OBJECT_NAME,OBJECT_ID,EPOCH,MEAN_MOTION,ECCENTRICITY,INCLINATION,RA_OF_ASC_NODE,ARG_OF_PERICENTER,MEAN_ANOMALY,EPHEMERIS_TYPE,CLASSIFICATION_TYPE,NORAD_CAT_ID,ELEMENT_SET_NO,REV_AT_EPOCH,BSTAR,MEAN_MOTION_DOT,MEAN_MOTION_DDOT
SHIJIAN-17 (SJ-17),2016-065A,2026-06-27T12:19:24.354912,0.99859117,.0002252,5.7784,72.4841,29.4143,218.9305,0,U,41838,999,3530,0,.126E-5,0
GOES 16,2016-071A,2026-06-27T12:00:32.203008,1.00272086,.0000588,0.3667,85.5265,10.2393,255.2834,0,U,41866,999,3520,0,-.8E-6,0
TIANLIAN 1-04,2016-072A,2026-06-27T11:31:56.233344,1.00273388,.0042915,0.8948,82.8611,90.3286,92.1720,0,U,41869,999,3540,0,.42E-6,0
WGS F8 (USA 272),2016-075A,2026-06-27T04:39:53.663040,1.00267964,.000018,0.0466,54.1204,172.7870,268.2362,0,U,41879,999,3492,0,0,0
FENGYUN 4A,2016-077A,2026-06-26T13:08:30.580224,1.00264621,.0008229,2.3469,80.1884,152.1316,3.0696,0,U,41882,999,3502,0,-.348E-5,0
ECHOSTAR 19,2016-079A,2026-06-27T12:02:39.501312,1.00270730,.0001622,0.0172,25.9626,63.0216,270.1812,0,U,41893,999,3480,0,-.127E-5,0
JCSAT-110A (JCSAT-15),2016-082A,2026-06-27T11:33:38.601792,1.00272253,.000085,0.0039,84.8351,17.0603,97.1806,0,U,41903,999,3486,0,-.339E-5,0
STAR ONE D1,2016-082B,2026-06-27T12:06:24.142176,1.00271620,.0002296,0.0238,56.8256,54.8404,261.5509,0,U,41904,999,3487,0,-.199E-5,0
TJS-2,2017-001A,2026-06-27T11:06:45.196704,1.00272419,.0000799,0.8595,85.2120,46.0987,17.4864,0,U,41911,999,3482,0,.4E-7,0
SBIRS GEO-4 (USA 273),2017-004A,2026-06-27T04:03:03.385152,1.00273895,.00023736,2.2617,43.5508,44.7318,268.6702,0,U,41937,999,3469,0,.133E-5,0
HISPASAT 36W-1,2017-006A,2026-06-27T12:20:00.337056,1.00273080,.0001099,0.0088,293.3383,168.3044,322.9881,0,U,41942,999,3434,0,-.233E-5,0
TELKOM 3S,2017-007A,2026-06-27T11:15:38.746944,1.00272925,.0002523,0.0147,63.2858,32.7889,106.4191,0,U,41944,999,3424,0,-.351E-5,0
INTELSAT 32E (IS-32E),2017-007B,2026-06-27T12:18:00.528768,1.00269458,.0001011,0.0041,32.2744,326.4793,58.1881,0,U,41945,999,3432,0,-.257E-5,0
ECHOSTAR 23,2017-014A,2026-06-27T08:33:46.166976,1.00270461,.0002056,0.0286,21.8792,75.8712,196.2646,0,U,42070,999,3402,0,0,0
WGS F9 (USA 275),2017-016A,2026-06-27T09:01:35.999904,1.00267659,.0000475,0.0262,350.9827,44.6178,3.2905,0,U,42075,999,3399,0,0,0
SES-10,2017-017A,2026-06-27T07:03:18.379872,1.00272066,.0003064,0.0188,38.1681,63.7527,212.4183,0,U,42432,999,3385,0,-.261E-5,0
CHINASAT 16 (SJ-13),2017-018A,2026-06-25T23:23:27.062592,1.00275032,.00040437,0.0997,89.7024,125.6560,160.1297,0,U,42662,999,3383,0,-.342E-5,0
KOREASAT 7,2017-023A,2026-06-27T10:08:38.693184,1.00271986,.0000543,0.0209,21.8640,57.0803,104.6576,0,U,42691,999,3347,0,-.35E-5,0
SGDC,2017-023B,2026-06-27T10:37:17.305824,1.00273234,.0002804,0.0244,59.5124,41.2666,259.2488,0,U,42692,999,3350,0,-.238E-5,0
GSAT-9,2017-024A,2026-06-27T03:19:38.910720,1.00273937,.0002088,0.0404,88.6121,16.7368,317.0931,0,U,42695,999,3339,0,-.275E-5,0
INMARSAT 5-F4,2017-025A,2026-06-27T09:21:04.133088,1.00267034,.0000676,0.0280,24.4788,8.0685,79.7214,0,U,42698,999,3338,0,0,0
SES-15,2017-026A,2026-06-27T10:10:56.932320,1.00273031,.0001081,0.0203,333.7086,157.7213,167.6801,0,U,42709,999,753,0,.71E-6,0
QZS-2 (MICHIBIKI-2),2017-028A,2026-06-27T11:52:38.451936,1.00281278,.0758985,39.4116,243.0027,269.3731,83.4413,0,U,42738,999,773,0,-.13E-5,0
VIASAT-2,2017-029A,2026-06-27T12:10:23.757888,1.00272211,.0000484,0.0169,301.4613,128.8496,318.0244,0,U,42740,999,3330,0,-.254E-5,0
EUTELSAT 172B,2017-029B,2026-06-27T12:24:38.765376,1.00272630,.000028,0.0373,130.9469,322.8448,179.9984,0,U,42741,999,3384,0,.6E-7,0
GSAT-19,2017-031A,2026-06-27T11:01:23.213280,1.00272562,.0007166,0.0163,325.6365,111.2779,51.8509,0,U,42747,999,3325,0,.137E-5,0
ECHOSTAR 21,2017-032A,2026-06-27T12:33:21.557088,1.00273554,.0002614,1.7699,356.3835,89.9789,27.8742,0,U,42749,999,3320,0,.78E-6,0
BULGARIASAT-1,2017-038A,2026-06-27T07:22:54.002208,1.00247161,.0003145,0.0332,74.5042,3.7304,309.8067,0,U,42801,999,3294,0,.18E-6,0
HELLAS-SAT 3,2017-040A,2026-06-27T12:41:29.660064,1.00269832,.000433,0.0418,37.3945,23.1099,84.5125,0,U,42814,999,3291,0,.164E-5,0
GSAT-17,2017-040B,2026-06-27T02:41:09.659904,1.00272601,.00013882,0.0309,84.3360,209.3628,115.3211,0,U,42815,999,3288,0,-.246E-5,0
INTELSAT 35E (IS-35E),2017-041A,2026-06-27T10:37:54.348096,1.00269000,.0002388,0.0280,28.1595,69.9449,302.4367,0,U,42818,999,3291,0,0,0
COSMOS 2520,2017-046A,2026-06-27T04:09:55.227168,1.00270498,.00003539,0.0413,98.3723,27.4401,256.9528,0,U,42907,999,3249,0,.149E-5,0
